ORBCOMM FM103 [+]       
1 40091U 14040F   24037.58037484  .00001135  00000+0  29152-3 0  9999
2 40091  47.0043 199.5492 0002066 179.8722 180.2163 14.56268367491679
ORBCOMM FM114 [+]       
1 41179U 15081A   24037.34028445  .00001600  00000+0  39537-3 0  9999
2 41179  47.0027 109.9947 0002486 241.1391 118.9244 14.56273907432006
ORBCOMM FM119 [-]       
1 41180U 15081B   24037.37760654  .00001237  00000+0  31434-3 0  9993
2 41180  47.0025  19.0091 0002296 293.0054  67.0589 14.56262541433265
ORBCOMM FM105 [-]       
1 41181U 15081C   24037.94642415  .00000598  00000+0  21817-3 0  9994
2 41181  47.0033 334.7433 0002441 266.3873  93.6727 14.44217981429108
ORBCOMM FM110 [+]       
1 41182U 15081D   24038.00343059  .00001484  00000+0  36939-3 0  9991
2 41182  47.0013 106.2877 0000925  19.4545 340.6375 14.56273337432152
ORBCOMM FM118 [+]       
1 41183U 15081E   24037.98071136  .00001706  00000+0  41923-3 0  9998
2 41183  47.0039 106.6813 0001072  18.6108 341.4816 14.56273776432151
ORBCOMM FM112 [+]       
1 41184U 15081F   24037.97316865  .00001548  00000+0  38383-3 0  9999
2 41184  47.0007  15.4441 0002142 285.9343  74.1306 14.56270931433346
ORBCOMM FM113 [+]       
1 41185U 15081G   24037.33255699  .00001187  00000+0  30325-3 0  9994
2 41185  47.0026  18.7084 0001870 296.2535  63.8157 14.56253787433183
